ONEWEB-0572             
1 55151U 23004M   26170.56961235  .00000005  00000+0 -19318-4 0  9990
2 55151  87.9131   5.3914 0001984  94.2926 265.8432 13.17648914167798
ONEWEB-0573             
1 55152U 23004N   26170.16363763  .00000055  00000+0  10611-3 0  9999
2 55152  87.9163 335.0757 0002323 114.8986 245.2388 13.18686692169953
ONEWEB-0588             
1 55153U 23004P   26170.38452460  .00000076  00000+0  16008-3 0  9996
2 55153  87.9161 335.0322 0002358  95.6557 264.4844 13.18685525169985
ONEWEB-0598             
1 55154U 23004Q   26170.29655889 -.00000464  00000+0 -13450-2 0  9997
2 55154  87.8881  20.6487 0001770 109.6339 250.4980 13.11414623166170
ONEWEB-0599             
1 55155U 23004R   26170.30299429  .00000003  00000+0 -25819-4 0  9996
2 55155  87.9132   5.4429 0001654  92.2102 267.9219 13.17649095167767
ONEWEB-0614             
1 55156U 23004S   26170.52036353 -.00000240  00000+0 -71314-3 0  9990
2 55156  87.8882  20.6129 0002002  82.0902 278.0453 13.11413849166142
ONEWEB-0616             
1 55157U 23004T   26170.57299360 -.00000026  00000+0 -99693-4 0  9998
2 55157  87.9133   5.3929 0000937  84.3603 275.7636 13.17649078168015
ONEWEB-0617             
1 55158U 23004U   26170.58480738  .00000304  00000+0  82110-3 0  9993
2 55158  87.8891  20.5912 0002238  84.3927 275.7456 13.11415022166171
ONEWEB-0618             
1 55159U 23004V   26170.50558170  .00003133  00000+0  17484-3 0  9997
2 55159  86.9092 176.6936 0009498 289.0939  70.9272 15.13149372182610
ONEWEB-0619             
1 55160U 23004W   26170.30131112  .00000140  00000+0  32772-3 0  9992
2 55160  87.9143   5.4277 0001879  77.8855 282.2487 13.17650158167870
ONEWEB-0620             
1 55161U 23004X   26170.57971094  .00000448  00000+0  12291-2 0  9997
2 55161  87.8882  20.6008 0001921  93.9475 266.1873 13.11414209166144
ONEWEB-0621             
1 55162U 23004Y   26170.30164185 -.00000581  00000+0 -16743-2 0  9990
2 55162  87.8893  20.6453 0002006  81.4387 278.6968 13.11415041166081
ONEWEB-0622             
1 55163U 23004Z   26170.30673056 -.00000559  00000+0 -16119-2 0  9995
2 55163  87.8893  20.6466 0002549  86.9653 273.1767 13.11416680166070
ONEWEB-0623             
1 55164U 23004AA  26170.52404767  .00000050  00000+0  95504-4 0  9992
2 55164  87.9129   5.4137 0002479  76.1690 283.9718 13.17649946167899
ONEWEB-0624             
1 55165U 23004AB  26170.48116734  .00000799  00000+0  21694-2 0  9999
2 55165  87.8935 350.1285 0002816 108.0268 252.1168 13.12925486168371
ONEWEB-0625             
1 55166U 23004AC  26170.51393314  .00000040  00000+0  68571-4 0  9991
2 55166  87.9131   5.4114 0001712  86.7345 273.3982 13.17649272167889
ONEWEB-0626             
1 55167U 23004AD  26170.57976233  .00000219  00000+0  53070-3 0  9990
2 55167  87.9111   5.3935 0001848 107.2808 252.8526 13.17645410167898
ONEWEB-0627             
1 55168U 23004AE  26170.56792584  .00000052  00000+0  10188-3 0  9993
2 55168  87.9133   5.4009 0002252  79.3864 280.7521 13.17648723167892
ONEWEB-0628             
1 55169U 23004AF  26170.23471067 -.00000385  00000+0 -11051-2 0  9998
2 55169  87.8948 350.2456 0002292  77.1527 282.9857 13.12444207168308
ONEWEB-0629             
1 55170U 23004AG  26170.23970759  .00000058  00000+0  11586-3 0  9991
2 55170  87.9130   5.4620 0001840  78.6536 281.4802 13.17648342167854
ONEWEB-0631             
1 55171U 23004AH  26170.37777947  .00000034  00000+0  52776-4 0  9992
2 55171  87.9171 334.9996 0002282 101.5135 258.6253 13.18685527169965
ONEWEB-0709             
1 55172U 23004AJ  26170.56954716  .00000587  00000+0  16198-2 0  9994
2 55172  87.8885  20.6050 0001904 113.9458 246.1870 13.11417770166186
ONEWEB-0710             
1 55173U 23004AK  26170.55779882  .00000022  00000+0  22654-4 0  9993
2 55173  87.9131   5.3938 0002010  86.9821 273.1541 13.17649926167899
ONEWEB-0711             
1 55174U 23004AL  26170.08292948 -.00000514  00000+0 -14871-2 0  9993
2 55174  87.8884  20.6895 0002495  79.8733 280.2676 13.11419176166080
ONEWEB-0713             
1 55175U 23004AM  26170.55937565  .00000324  00000+0  87875-3 0  9999
2 55175  87.8890  20.5960 0002197  82.5675 277.5703 13.11418710166134
ONEWEB-0715             
1 55176U 23004AN  26170.55427404  .00000021  00000+0  24263-4 0  9993
2 55176  87.8886  20.5978 0002148 104.4129 255.7237 13.11420477166170
ONEWEB-0716             
1 55177U 23004AP  26170.47511210  .00000027  00000+0  36786-4 0  9993
2 55177  87.9132   5.4132 0001623  87.1743 272.9574 13.17650340167880
ONEWEB-0717             
1 55178U 23004AQ  26170.30637159 -.00000003  00000+0 -40580-4 0  9990
2 55178  87.9143   5.4345 0002442  88.8596 271.2816 13.17648481167911
ONEWEB-0719             
1 55179U 23004AR  26170.24056310  .00000017  00000+0  11278-4 0  9993
2 55179  87.9140   5.4280 0001734  82.9767 277.1561 13.17649860167852
ONEWEB-0530             
1 55796U 23029A   26170.51415323 -.00000003  00000+0 -38715-4 0  9990
2 55796  87.9187 274.0051 0002265  90.5642 269.5751 13.20771578161457
