OBJECT_NAME,OBJECT_ID,EPOCH,MEAN_MOTION,ECCENTRICITY,INCLINATION,RA_OF_ASC_NODE,ARG_OF_PERICENTER,MEAN_ANOMALY,EPHEMERIS_TYPE,CLASSIFICATION_TYPE,NORAD_CAT_ID,ELEMENT_SET_NO,REV_AT_EPOCH,BSTAR,MEAN_MOTION_DOT,MEAN_MOTION_DDOT
ONEWEB-0572,2023-004M,2026-06-19T13:40:14.507040,13.17648914,.00019848,87.9131,5.3914,94.2926,265.8432,0,U,55151,999,16779,-.19318442E-4,.5E-7,0
ONEWEB-0573,2023-004N,2026-06-19T03:55:38.291232,13.18686692,.00023239,87.9163,335.0757,114.8986,245.2388,0,U,55152,999,16995,.10611313E-3,.55E-6,0
ONEWEB-0588,2023-004P,2026-06-19T09:13:42.925440,13.18685525,.00023585,87.9161,335.0322,95.6557,264.4844,0,U,55153,999,16998,.1600757E-3,.76E-6,0
ONEWEB-0598,2023-004Q,2026-06-19T07:07:02.688096,13.11414623,.00017706,87.8881,20.6487,109.6339,250.4980,0,U,55154,999,16617,-.13450015E-2,-.464E-5,0
ONEWEB-0599,2023-004R,2026-06-19T07:16:18.706656,13.17649095,.00016541,87.9132,5.4429,92.2102,267.9219,0,U,55155,999,16776,-.25819475E-4,.3E-7,0
ONEWEB-0614,2023-004S,2026-06-19T12:29:19.408992,13.11413849,.00020024,87.8882,20.6129,82.0902,278.0453,0,U,55156,999,16614,-.7131375E-3,-.24E-5,0
ONEWEB-0616,2023-004T,2026-06-19T13:45:06.647040,13.17649078,.00009374,87.9133,5.3929,84.3603,275.7636,0,U,55157,999,16801,-.99693302E-4,-.26E-6,0
ONEWEB-0617,2023-004U,2026-06-19T14:02:07.357632,13.11415022,.00022388,87.8891,20.5912,84.3927,275.7456,0,U,55158,999,16617,.8210982E-3,.304E-5,0
ONEWEB-0618,2023-004V,2026-06-19T12:08:02.258880,15.13149372,.00094983,86.9092,176.6936,289.0939,70.9272,0,U,55159,999,18261,.17484308E-3,.3133E-4,0
ONEWEB-0619,2023-004W,2026-06-19T07:13:53.280768,13.17650158,.00018795,87.9143,5.4277,77.8855,282.2487,0,U,55160,999,16787,.32771923E-3,.14E-5,0
ONEWEB-0620,2023-004X,2026-06-19T13:54:47.025216,13.11414209,.00019216,87.8882,20.6008,93.9475,266.1873,0,U,55161,999,16614,.12291315E-2,.448E-5,0
ONEWEB-0621,2023-004Y,2026-06-19T07:14:21.855840,13.11415041,.00020068,87.8893,20.6453,81.4387,278.6968,0,U,55162,999,16608,-.1674267E-2,-.581E-5,0
ONEWEB-0622,2023-004Z,2026-06-19T07:21:41.520384,13.11416680,.00025491,87.8893,20.6466,86.9653,273.1767,0,U,55163,999,16607,-.16119471E-2,-.559E-5,0
ONEWEB-0623,2023-004AA,2026-06-19T12:34:37.718688,13.17649946,.00024798,87.9129,5.4137,76.1690,283.9718,0,U,55164,999,16789,.95503888E-4,.5E-6,0
ONEWEB-0624,2023-004AB,2026-06-19T11:32:52.858176,13.12925486,.00028163,87.8935,350.1285,108.0268,252.1168,0,U,55165,999,16837,.21693653E-2,.799E-5,0
ONEWEB-0625,2023-004AC,2026-06-19T12:20:03.823296,13.17649272,.00017125,87.9131,5.4114,86.7345,273.3982,0,U,55166,999,16788,.68571223E-4,.4E-6,0
ONEWEB-0626,2023-004AD,2026-06-19T13:54:51.465312,13.17645410,.00018487,87.9111,5.3935,107.2808,252.8526,0,U,55167,999,16789,.5307017E-3,.219E-5,0
ONEWEB-0627,2023-004AE,2026-06-19T13:37:48.792576,13.17648723,.00022525,87.9133,5.4009,79.3864,280.7521,0,U,55168,999,16789,.10188297E-3,.52E-6,0
ONEWEB-0628,2023-004AF,2026-06-19T05:37:59.001888,13.12444207,.00022929,87.8948,350.2456,77.1527,282.9857,0,U,55169,999,16830,-.11050774E-2,-.385E-5,0
ONEWEB-0629,2023-004AG,2026-06-19T05:45:10.735776,13.17648342,.00018405,87.9130,5.4620,78.6536,281.4802,0,U,55170,999,16785,.11585754E-3,.58E-6,0
ONEWEB-0631,2023-004AH,2026-06-19T09:04:00.146208,13.18685527,.00022827,87.9171,334.9996,101.5135,258.6253,0,U,55171,999,16996,.5277631E-4,.34E-6,0
ONEWEB-0709,2023-004AJ,2026-06-19T13:40:08.874624,13.11417770,.00019048,87.8885,20.6050,113.9458,246.1870,0,U,55172,999,16618,.16198062E-2,.587E-5,0
ONEWEB-0710,2023-004AK,2026-06-19T13:23:13.818048,13.17649926,.00020106,87.9131,5.3938,86.9821,273.1541,0,U,55173,999,16789,.22654093E-4,.22E-6,0
ONEWEB-0711,2023-004AL,2026-06-19T01:59:25.107072,13.11419176,.00024953,87.8884,20.6895,79.8733,280.2676,0,U,55174,999,16608,-.14871331E-2,-.514E-5,0
ONEWEB-0713,2023-004AM,2026-06-19T13:25:30.056160,13.11418710,.00021976,87.8890,20.5960,82.5675,277.5703,0,U,55175,999,16613,.87874796E-3,.324E-5,0
ONEWEB-0715,2023-004AN,2026-06-19T13:18:09.277056,13.11420477,.00021489,87.8886,20.5978,104.4129,255.7237,0,U,55176,999,16617,.24263234E-4,.21E-6,0
ONEWEB-0716,2023-004AP,2026-06-19T11:24:09.685440,13.17650340,.00016232,87.9132,5.4132,87.1743,272.9574,0,U,55177,999,16788,.36785567E-4,.27E-6,0
ONEWEB-0717,2023-004AQ,2026-06-19T07:21:10.505376,13.17648481,.00024425,87.9143,5.4345,88.8596,271.2816,0,U,55178,999,16791,-.40579807E-4,-.3E-7,0
ONEWEB-0719,2023-004AR,2026-06-19T05:46:24.651840,13.17649860,.00017343,87.9140,5.4280,82.9767,277.1561,0,U,55179,999,16785,.11277953E-4,.17E-6,0
ONEWEB-0530,2023-029A,2026-06-19T12:20:22.839072,13.20771578,.00022656,87.9187,274.0051,90.5642,269.5751,0,U,55796,999,16145,-.387155E-4,-.3E-7,0
